STARLINK-3105           
1 49440U 21104AJ  25181.90949467  .00000476  00000+0  47997-4 0  9990
2 49440  53.2174 259.4074 0001027  86.0574 274.0535 15.08838498200907
STARLINK-3128           
1 49441U 21104AK  25182.48727162 -.00001836  00000+0 -97342-4 0  9993
2 49441  53.2173 256.8127 0001240  90.4011 269.7123 15.08824120202070
STARLINK-3098           
1 49442U 21104AL  25181.64085649 -.00000127  00000+0  10082-4 0  9995
2 49442  53.2170 260.6135 0001206  90.4540 269.6590 15.08836004200865
STARLINK-3136           
1 49443U 21104AM  25182.48356973 -.00000541  00000+0 -15912-4 0  9998
2 49443  53.2168 256.8275 0000737  82.3989 277.7087 15.08841902202068
STARLINK-3126           
1 49444U 21104AN  25182.49923650  .00001710  00000+0  12543-3 0  9995
2 49444  53.2175 256.7691 0001082  83.4139 276.6976 15.08854641202060
STARLINK-3122           
1 49445U 21104AP  25182.54990720 -.00000889  00000+0 -37815-4 0  9992
2 49445  53.2175 266.9278 0000929  80.5708 279.5389 15.08830825201937
STARLINK-3099           
1 49446U 21104AQ  25181.63349381 -.00000107  00000+0  11356-4 0  9997
2 49446  53.2178 260.6462 0001156  84.1937 275.9187 15.08838743200868
STARLINK-3115           
1 49447U 21104AR  25182.23977632 -.00001094  00000+0 -50660-4 0  9999
2 49447  53.2173 267.9238 0001331  89.7401 270.3743 15.08845438201886
STARLINK-3137           
1 49449U 21104AT  25182.49719359  .00001255  00000+0  96457-4 0  9990
2 49449  53.2165 266.7368 0001103  62.1672 297.9432 15.09029379201937
STARLINK-3127           
1 49450U 21104AU  25181.65098142  .00002109  00000+0  15056-3 0  9993
2 49450  53.2171 270.6060 0001100  73.9342 286.1771 15.08832020200984
STARLINK-3125           
1 49451U 21104AV  25181.57001171  .00001053  00000+0  84209-4 0  9995
2 49451  53.2171 270.9301 0001078  87.2048 272.9067 15.08841546201795
STARLINK-3150           
1 49452U 21104AW  25182.48730003 -.00000133  00000+0  97421-5 0  9990
2 49452  53.2177 266.8509 0001155  88.3077 271.8048 15.08836475201934
STARLINK-3129           
1 49453U 21104AX  25182.49833788 -.00000244  00000+0  27404-5 0  9993
2 49453  53.2163 266.8482 0001238  87.2710 272.8424 15.08843930201926
STARLINK-3160           
1 49454U 21104AY  25181.56633338  .00000497  00000+0  49316-4 0  9994
2 49454  53.2173 270.9464 0001168  92.5490 267.5636 15.08838964201792
STARLINK-3145           
1 49455U 21104AZ  25182.54521850  .00000189  00000+0  29937-4 0  9994
2 49455  53.2176 266.5533 0001088  82.5048 277.6068 15.08838018201930
STARLINK-3124           
1 49456U 21104BA  25181.56361546  .00000961  00000+0  78426-4 0  9995
2 49456  53.2174 271.0079 0001143  83.4341 276.6781 15.08840093201783
STARLINK-3132           
1 49457U 21104BB  25182.54250030 -.00000552  00000+0 -16583-4 0  9994
2 49457  53.2178 266.5766 0001085  89.0478 271.0638 15.08833577201934
STARLINK-3156           
1 49458U 21104BC  25182.54890887  .00001187  00000+0  92674-4 0  9993
2 49458  53.2174 266.5366 0001405  72.4251 287.6895 15.08841425201959
STARLINK-3141           
1 49459U 21104BD  25182.20665463  .00000008  00000+0  18596-4 0  9999
2 49459  53.2170 268.0743 0001168  87.0823 273.0303 15.08835989201888
STARLINK-3140           
1 49460U 21104BE  25182.53417744 -.00000430  00000+0 -89522-5 0  9993
2 49460  53.2175 266.6028 0001136  81.7406 278.3715 15.08835015201940
STARLINK-3219           
1 49724U 21115A   25182.40448427 -.00001027  00000+0 -46449-4 0  9999
2 49724  53.2157 197.4048 0001252  81.4652 278.6482 15.08837913198707
STARLINK-3218           
1 49725U 21115B   25181.76415845  .00000370  00000+0  41348-4 0  9997
2 49725  53.2163 200.1634 0001080  86.1071 274.0045 15.08833295197505
STARLINK-3242           
1 49727U 21115D   25182.44769928  .00000042  00000+0  20737-4 0  9994
2 49727  53.2159 206.9890 0001158  87.7807 272.3317 15.08835600198584
STARLINK-3240           
1 49728U 21115E   25182.05393367  .00000306  00000+0  37327-4 0  9998
2 49728  53.2165 208.7570 0001122  79.5752 280.5366 15.08838170198519
STARLINK-3251           
1 49729U 21115F   25182.44400200  .00000158  00000+0  27979-4 0  9994
2 49729  53.2158 206.8903 0000865  74.4855 285.6233 15.08837139198571
STARLINK-3249           
1 49730U 21115G   25181.81843444  .00000259  00000+0  34350-4 0  9990
2 49730  53.2157 210.0080 0001141  72.4537 287.6580 15.08839987197364
STARLINK-3246           
1 49732U 21115J   25182.48819235 -.00000662  00000+0 -23491-4 0  9991
2 49732  53.2160 206.9645 0001193  88.8873 271.2255 15.08840238198575
STARLINK-3252           
1 49733U 21115K   25182.39986965  .00005074  00000+0  33683-3 0  9990
2 49733  53.2163 207.2056 0000716  66.5220 293.5847 15.08817041198567
STARLINK-3238           
1 49734U 21115L   25182.35294130  .00000186  00000+0  29768-4 0  9992
2 49734  53.2160 197.4384 0001168  78.1115 282.0008 15.08836534198709
STARLINK-3113           
1 49735U 21115M   25182.06128235  .00000691  00000+0  61511-4 0  9996
2 49735  53.2159 208.6084 0000962  74.4466 285.6632 15.08839593198518
STARLINK-3148           
1 49736U 21115N   25181.75308555 -.00000010  00000+0  17451-4 0  9997
2 49736  53.2158 199.9909 0001187  84.9135 275.1993 15.08833354197506
STARLINK-3225           
1 49737U 21115P   25181.76045531  .00000049  00000+0  21176-4 0  9991
2 49737  53.2161 200.0741 0001105  86.8277 273.2841 15.08836818197506
STARLINK-3143           
1 49738U 21115Q   25181.98591473  .00000292  00000+0  36422-4 0  9997
2 49738  53.2159 199.2695 0001145  78.0074 282.1047 15.08839946198641
STARLINK-3155           
1 49739U 21115R   25182.41091133  .00004468  00000+0  29876-3 0  9998
2 49739  53.2160 207.1569 0000721  85.9348 274.1726 15.08822909198560
STARLINK-3226           
1 49740U 21115S   25181.77613393  .00000281  00000+0  35743-4 0  9996
2 49740  53.2167 199.9771 0000874  59.4003 300.7075 15.08835896197500
STARLINK-3244           
1 49741U 21115T   25182.23614019  .00000252  00000+0  33913-4 0  9990
2 49741  53.2157 197.9476 0001290  86.9477 273.1663 15.08847306198688
STARLINK-3202           
1 49742U 21115U   25181.98493862  .00000467  00000+0  47427-4 0  9996
2 49742  53.2157 199.0679 0001139  82.6134 277.4988 15.08836095198648
STARLINK-3239           
1 49743U 21115V   25181.76876487  .00000228  00000+0  32401-4 0  9992
2 49743  53.2157 199.9681 0001087  77.6357 282.4757 15.08837333197504
STARLINK-3231           
1 49744U 21115W   25182.18093560  .00000598  00000+0  55682-4 0  9999
2 49744  53.2167 198.0843 0001240  81.0230 279.0902 15.08826246198670
STARLINK-3241           
1 49745U 21115X   25181.77981536 -.00000136  00000+0  95365-5 0  9995
2 49745  53.2167 199.9619 0001149  76.7427 283.3694 15.08834379197502
STARLINK-3233           
1 49746U 21115Y   25181.53597273  .00000056  00000+0  21621-4 0  9994
2 49746  53.2160 201.0845 0001023  80.4584 279.6524 15.08839322197467
STARLINK-3247           
1 49747U 21115Z   25181.78989452  .00000078  00000+0  22987-4 0  9996
2 49747  53.2161 199.9450 0001243  86.8021 273.3113 15.08838843197503
STARLINK-3248           
1 49748U 21115AA  25181.76777140 -.00000238  00000+0  31310-5 0  9994
2 49748  53.2166 199.6177 0001124  80.6902 279.4217 15.08833823197516
STARLINK-3250           
1 49749U 21115AB  25181.75408031 -.00000149  00000+0  87125-5 0  9990
2 49749  53.2163 200.3440 0001178  75.6389 284.4734 15.08837978197491
STARLINK-3236           
1 49750U 21115AC  25182.41277130 -.00000272  00000+0  98246-6 0  9994
2 49750  53.2160 197.1559 0000895  85.1075 275.0019 15.08845164198711
STARLINK-3229           
1 49751U 21115AD  25182.06220624 -.00000894  00000+0 -38123-4 0  9999
2 49751  53.2160 198.6447 0001124  62.9575 297.1532 15.08834838198663
STARLINK-3209           
1 49752U 21115AE  25181.50104788  .00000198  00000+0  30551-4 0  9992
2 49752  53.2158 191.2512 0001097  75.2958 284.8156 15.08841104197606
STARLINK-3200           
1 49753U 21115AF  25182.40813689 -.00000741  00000+0 -28473-4 0  9996
2 49753  53.2161 197.1672 0001308  88.9890 271.1252 15.08837662198717
STARLINK-3193           
1 49754U 21115AG  25182.23242072 -.00001332  00000+0 -65605-4 0  9995
2 49754  53.2158 188.0613 0001135  86.8875 273.2247 15.08840213198821
STARLINK-3210           
1 49755U 21115AH  25181.75773810  .00000074  00000+0  22742-4 0  9996
2 49755  53.2162 200.1355 0001208  80.5171 279.5958 15.08836482197502
STARLINK-3207           
1 49756U 21115AJ  25181.51113216 -.00000693  00000+0 -25458-4 0  9995
2 49756  53.2157 191.1967 0000962  92.2311 267.8791 15.08845219197601
STARLINK-3197           
1 49757U 21115AK  25182.23337282 -.00000541  00000+0 -15919-4 0  9990
2 49757  53.2162 187.9629 0001177  79.2600 280.8525 15.08837318198827
STARLINK-3194           
1 49758U 21115AL  25181.71721371 -.00000360  00000+0 -45284-5 0  9997
2 49758  53.2162 190.2706 0001181  76.6481 283.4643 15.08837545197634
STARLINK-3204           
1 49759U 21115AM  25182.23609881 -.00000022  00000+0  16695-4 0  9994
2 49759  53.2159 187.9416 0001172  93.9635 266.1491 15.08849523198825
STARLINK-3199           
1 49760U 21115AN  25181.98953718 -.00000067  00000+0  13878-4 0  9997
2 49760  53.2159 189.0474 0001076  73.8849 286.2261 15.08834758198799
STARLINK-3203           
1 49761U 21115AP  25181.71353338 -.00000371  00000+0 -51952-5 0  9996
2 49761  53.2160 190.2870 0001227  82.0683 278.0448 15.08839443197636
STARLINK-3195           
1 49762U 21115AQ  25182.26188839 -.00003184  00000+0 -18221-3 0  9995
2 49762  53.2157 187.8245 0000982  82.8635 277.2469 15.08808225198834
STARLINK-3198           
1 49763U 21115AR  25182.44953797 -.00000254  00000+0  21363-5 0  9996
2 49763  53.2160 186.9824 0001091  75.3367 284.7746 15.08836759198860
STARLINK-3227           
1 49765U 21115AT  25182.25915658 -.00001578  00000+0 -81128-4 0  9996
2 49765  53.2154 187.8475 0001002  74.7030 285.4073 15.08820893198839
